{
  "norad_id": 67257,
  "name": "SITRO-AIS-59",
  "history": [
    {
      "epoch": "2026-03-28T19:54:12.794400Z",
      "apogee_km": 510.8142896453337,
      "perigee_km": 491.00250132542715,
      "latitude_deg": 3.293484467866796e-05,
      "longitude_deg": 38.92613993126552,
      "height_km": 501.07311732633326,
      "semi_major_axis_km": 6879.04539548538,
      "eccentricity": 0.00144001,
      "inclination_deg": 97.3979,
      "raan_deg": 163.7236,
      "arg_perigee_deg": 287.2335,
      "mean_anomaly_deg": 72.7325,
      "mean_motion_rev_day": 15.21635034
    },
    {
      "epoch": "2026-03-29T03:47:41.387424Z",
      "apogee_km": 510.7744272557584,
      "perigee_km": 490.987619812865,
      "latitude_deg": 1.0452348699162433e-05,
      "longitude_deg": -79.4438779348331,
      "height_km": 501.2459154443667,
      "semi_major_axis_km": 6879.018023534311,
      "eccentricity": 0.0014382,
      "inclination_deg": 97.3979,
      "raan_deg": 164.0468,
      "arg_perigee_deg": 286.0461,
      "mean_anomaly_deg": 73.9191,
      "mean_motion_rev_day": 15.21644116
    },
    {
      "epoch": "2026-03-30T03:28:06.008736Z",
      "apogee_km": 510.64965030935946,
      "perigee_km": 490.9250226669128,
      "latitude_deg": 4.820001715911647e-05,
      "longitude_deg": -74.54890735550025,
      "height_km": 501.78909424226936,
      "semi_major_axis_km": 6878.924336488136,
      "eccentricity": 0.0014337,
      "inclination_deg": 97.398,
      "raan_deg": 165.0166,
      "arg_perigee_deg": 282.2816,
      "mean_anomaly_deg": 77.6815,
      "mean_motion_rev_day": 15.21675202
    },
    {
      "epoch": "2026-03-30T03:28:06.009600Z",
      "apogee_km": 510.6493751523858,
      "perigee_km": 490.92529782388647,
      "latitude_deg": 4.372326962407778e-05,
      "longitude_deg": -74.5489103872904,
      "height_km": 501.78915278555075,
      "semi_major_axis_km": 6878.924336488136,
      "eccentricity": 0.00143366,
      "inclination_deg": 97.398,
      "raan_deg": 165.0166,
      "arg_perigee_deg": 282.2816,
      "mean_anomaly_deg": 77.6815,
      "mean_motion_rev_day": 15.21675202
    },
    {
      "epoch": "2026-03-30T11:21:33.876864Z",
      "apogee_km": 510.62455475788283,
      "perigee_km": 490.90123540071363,
      "latitude_deg": 8.377176403561473e-05,
      "longitude_deg": 167.08409631786301,
      "height_km": 501.98291371866907,
      "semi_major_axis_km": 6878.8998950792975,
      "eccentricity": 0.00143361,
      "inclination_deg": 97.398,
      "raan_deg": 165.3398,
      "arg_perigee_deg": 280.9879,
      "mean_anomaly_deg": 78.9745,
      "mean_motion_rev_day": 15.21683312
    },
    {
      "epoch": "2026-03-30T20:49:43.097088Z",
      "apogee_km": 510.5813500862296,
      "perigee_km": 490.8816464808442,
      "latitude_deg": -4.0747100882965686e-05,
      "longitude_deg": 25.04480788361564,
      "height_km": 502.21005913687793,
      "semi_major_axis_km": 6878.868498283537,
      "eccentricity": 0.0014319,
      "inclination_deg": 97.398,
      "raan_deg": 165.7278,
      "arg_perigee_deg": 279.4732,
      "mean_anomaly_deg": 80.4885,
      "mean_motion_rev_day": 15.2169373
    },
    {
      "epoch": "2026-03-31T20:30:05.230944Z",
      "apogee_km": 510.5131923099916,
      "perigee_km": 490.8136836157528,
      "latitude_deg": -8.498994169833664e-05,
      "longitude_deg": 29.950182583537206,
      "height_km": 502.80694832184327,
      "semi_major_axis_km": 6878.800437962872,
      "eccentricity": 0.0014319,
      "inclination_deg": 97.3977,
      "raan_deg": 166.6976,
      "arg_perigee_deg": 275.5717,
      "mean_anomaly_deg": 84.3885,
      "mean_motion_rev_day": 15.21716314
    },
    {
      "epoch": "2026-04-01T20:10:26.208768Z",
      "apogee_km": 510.49881691315204,
      "perigee_km": 490.7114273246643,
      "latitude_deg": 3.5367168035428645e-05,
      "longitude_deg": 34.860465907679725,
      "height_km": 503.39343466898947,
      "semi_major_axis_km": 6878.742122118908,
      "eccentricity": 0.0014383,
      "inclination_deg": 97.3973,
      "raan_deg": 167.6675,
      "arg_perigee_deg": 271.8051,
      "mean_anomaly_deg": 88.1538,
      "mean_motion_rev_day": 15.21735665
    },
    {
      "epoch": "2026-04-02T19:50:45.658176Z",
      "apogee_km": 510.40910471460757,
      "perigee_km": 490.5711440878349,
      "latitude_deg": -5.6949482475581676e-05,
      "longitude_deg": 39.776962060173005,
      "height_km": 503.9198067611969,
      "semi_major_axis_km": 6878.627124401221,
      "eccentricity": 0.001442,
      "inclination_deg": 97.397,
      "raan_deg": 168.6372,
      "arg_perigee_deg": 268.0961,
      "mean_anomaly_deg": 91.8623,
      "mean_motion_rev_day": 15.21773826
    },
    {
      "epoch": "2026-04-02T23:00:08.098848Z",
      "apogee_km": 510.3913367289242,
      "perigee_km": 490.562219218883,
      "latitude_deg": 1.0208168690388114e-05,
      "longitude_deg": -7.566871223397053,
      "height_km": 503.9988937011332,
      "semi_major_axis_km": 6878.613777973903,
      "eccentricity": 0.00144136,
      "inclination_deg": 97.397,
      "raan_deg": 168.7665,
      "arg_perigee_deg": 267.5609,
      "mean_anomaly_deg": 92.3977,
      "mean_motion_rev_day": 15.21778255
    },
    {
      "epoch": "2026-04-03T19:31:03.000288Z",
      "apogee_km": 510.295205201106,
      "perigee_km": 490.4644411998188,
      "latitude_deg": 3.322149518479894e-05,
      "longitude_deg": 44.702338377474085,
      "height_km": 504.4767411105088,
      "semi_major_axis_km": 6878.516823200462,
      "eccentricity": 0.0014415,
      "inclination_deg": 97.3969,
      "raan_deg": 169.607,
      "arg_perigee_deg": 264.2318,
      "mean_anomaly_deg": 95.7275,
      "mean_motion_rev_day": 15.2181043
    },
    {
      "epoch": "2026-04-04T19:11:18.475296Z",
      "apogee_km": 510.1994938829466,
      "perigee_km": 490.4019743965455,
      "latitude_deg": -1.9703217131806693e-05,
      "longitude_deg": 49.63573323553917,
      "height_km": 505.0515321538337,
      "semi_major_axis_km": 6878.437734139746,
      "eccentricity": 0.0014391,
      "inclination_deg": 97.3966,
      "raan_deg": 170.577,
      "arg_perigee_deg": 260.4038,
      "mean_anomaly_deg": 99.5572,
      "mean_motion_rev_day": 15.21836677
    },
    {
      "epoch": "2026-04-05T10:58:07.976064Z",
      "apogee_km": 510.14264635842846,
      "perigee_km": 490.35257086560614,
      "latitude_deg": 1.5743034418106513e-05,
      "longitude_deg": 172.92809575754276,
      "height_km": 505.4349178554182,
      "semi_major_axis_km": 6878.3846086120175,
      "eccentricity": 0.00143857,
      "inclination_deg": 97.3962,
      "raan_deg": 171.2237,
      "arg_perigee_deg": 257.8272,
      "mean_anomaly_deg": 102.1353,
      "mean_motion_rev_day": 15.21854308
    },
    {
      "epoch": "2026-04-05T18:51:32.558400Z",
      "apogee_km": 510.1484903135779,
      "perigee_km": 490.3112802164742,
      "latitude_deg": 1.2137693324645103e-05,
      "longitude_deg": 54.57463180485074,
      "height_km": 505.60472141630345,
      "semi_major_axis_km": 6878.366885265026,
      "eccentricity": 0.001442,
      "inclination_deg": 97.3961,
      "raan_deg": 171.5467,
      "arg_perigee_deg": 256.7465,
      "mean_anomaly_deg": 103.2163,
      "mean_motion_rev_day": 15.2186019
    },
    {
      "epoch": "2026-04-06T05:54:18.737280Z",
      "apogee_km": 510.1479958371456,
      "perigee_km": 490.25322969273657,
      "latitude_deg": -5.485802629526921e-05,
      "longitude_deg": -111.11852224506103,
      "height_km": 505.898113279911,
      "semi_major_axis_km": 6878.337612764941,
      "eccentricity": 0.00144619,
      "inclination_deg": 97.396,
      "raan_deg": 171.9996,
      "arg_perigee_deg": 254.8693,
      "mean_anomaly_deg": 105.0943,
      "mean_motion_rev_day": 15.21869905
    },
    {
      "epoch": "2026-04-07T18:11:57.348096Z",
      "apogee_km": 510.10495980279666,
      "perigee_km": 490.1153978516886,
      "latitude_deg": -6.506482151152687e-05,
      "longitude_deg": 64.46715255723095,
      "height_km": 506.78966849999074,
      "semi_major_axis_km": 6878.247178827242,
      "eccentricity": 0.0014531,
      "inclination_deg": 97.3958,
      "raan_deg": 173.4867,
      "arg_perigee_deg": 249.0231,
      "mean_anomaly_deg": 110.945,
      "mean_motion_rev_day": 15.21899919
    },
    {
      "epoch": "2026-04-08T11:33:25.330752Z",
      "apogee_km": 510.10590052103726,
      "perigee_km": 490.0376259409077,
      "latitude_deg": -2.4507325065604128e-05,
      "longitude_deg": 164.09899232093326,
      "height_km": 507.21305105493974,
      "semi_major_axis_km": 6878.208763230972,
      "eccentricity": 0.00145883,
      "inclination_deg": 97.3958,
      "raan_deg": 174.198,
      "arg_perigee_deg": 246.2598,
      "mean_anomaly_deg": 113.7108,
      "mean_motion_rev_day": 15.21912669
    },
    {
      "epoch": "2026-04-09T19:06:58.560768Z",
      "apogee_km": 510.06105413218756,
      "perigee_km": 489.9452454501079,
      "latitude_deg": -3.1716405786835305e-05,
      "longitude_deg": 50.70773938924487,
      "height_km": 507.9410006583798,
      "semi_major_axis_km": 6878.140149791147,
      "eccentricity": 0.0014623,
      "inclination_deg": 97.3958,
      "raan_deg": 175.4913,
      "arg_perigee_deg": 241.2624,
      "mean_anomaly_deg": 118.7143,
      "mean_motion_rev_day": 15.21935442
    },
    {
      "epoch": "2026-04-10T10:53:44.540736Z",
      "apogee_km": 510.0468959571008,
      "perigee_km": 489.8871730319979,
      "latitude_deg": -3.6741329978843565e-05,
      "longitude_deg": 174.01471663521514,
      "height_km": 508.3022793390121,
      "semi_major_axis_km": 6878.1040344945495,
      "eccentricity": 0.0014655,
      "inclination_deg": 97.3958,
      "raan_deg": 176.1379,
      "arg_perigee_deg": 238.7242,
      "mean_anomaly_deg": 121.2559,
      "mean_motion_rev_day": 15.21947429
    }
  ]
}